QIANFAN-1               
1 60379U 24140A   26010.94808303  .00000127  00000+0  17821-3 0  9991
2 60379  88.9778 296.2612 0018567 125.8695 234.4184 13.50985526 71294
QIANFAN-2               
1 60380U 24140B   26010.90291102  .00000149  00000+0  21149-3 0  9994
2 60380  88.9764 296.1012 0014409  99.3768 260.9013 13.50989487 71342
QIANFAN-3               
1 60381U 24140C   26010.91107106  .00000146  00000+0  20668-3 0  9998
2 60381  88.9757 296.2307 0015307 110.9433 249.3358 13.50990002 71258
QIANFAN-4               
1 60382U 24140D   26010.51601636  .00000164  00000+0  23437-3 0  9999
2 60382  88.9782 296.1765 0014592 102.7935 257.4848 13.50985576 71327
QIANFAN-5               
1 60383U 24140E   26011.00987846  .00000140  00000+0  19716-3 0  9994
2 60383  88.9757 296.2459 0016350 121.3939 238.8814 13.50987751 71251
QIANFAN-6               
1 60384U 24140F   26010.88232765  .00000146  00000+0  20710-3 0  9995
2 60384  88.9783 296.0131 0014628 107.1993 253.0761 13.50987890 71438
QIANFAN-7               
1 60385U 24140G   26010.90159224  .00000727  00000+0  28883-3 0  9991
2 60385  88.9795 290.3005 0013694 312.3738  47.6296 14.27702681 74552
QIANFAN-8               
1 60386U 24140H   26010.89061392  .00000152  00000+0  21670-3 0  9997
2 60386  88.9785 296.2502 0018039 110.0666 250.2429 13.50989290 71285
